{
  "type": "FeatureCollection",
  "features": [
    {
      "type": "Feature",
      "properties": {
        "norad_id": 29894,
        "name": "FENGYUN 1C DEB",
        "group": "fengyun-1c-debris",
        "lat": -77.80460248803747,
        "lon": 178.1552701227357,
        "alt_km": 1032.190152972561,
        "timestamp": "2025-12-20T11:30:28.649317+00:00",
        "meta_object_name": "FENGYUN 1C DEB",
        "meta_object_id": "1999-025GQ",
        "meta_epoch": "2025-12-19T09:59:34.990080",
        "meta_mean_motion": 13.80980278,
        "meta_eccentricity": 0.0168176,
        "meta_inclination": 99.4852,
        "meta_ra_of_asc_node": 47.7604,
        "meta_arg_of_pericenter": 27.4066,
        "meta_mean_anomaly": 353.9862,
        "meta_ephemeris_type": 0,
        "meta_classification_type": "U",
        "meta_norad_cat_id": 29894,
        "meta_element_set_no": 999,
        "meta_rev_at_epoch": 95169,
        "meta_bstar": 0.00043706,
        "meta_mean_motion_dot": 4.68e-06,
        "meta_mean_motion_ddot": 0,
        "tle_line1": "1 29894U 99025GQ  25353.41637720  .00000468  00000+0  43706-3 0  9995",
        "tle_line2": "2 29894  99.4852  47.7604 0168176  27.4066 353.9862 13.80980278951695"
      },
      "geometry": {
        "type": "Point",
        "coordinates": [
          178.1552701227357,
          -77.80460248803747
        ]
      }
    },
    {
      "type": "Feature",
      "properties": {
        "norad_id": 29895,
        "name": "FENGYUN 1C DEB",
        "group": "fengyun-1c-debris",
        "lat": 46.36298053984328,
        "lon": 93.08261598659776,
        "alt_km": 835.1238020523224,
        "timestamp": "2025-12-20T11:30:28.649327+00:00",
        "meta_object_name": "FENGYUN 1C DEB",
        "meta_object_id": "1999-025GR",
        "meta_epoch": "2025-12-19T06:27:11.003040",
        "meta_mean_motion": 14.08294223,
        "meta_eccentricity": 0.0299532,
        "meta_inclination": 99.8852,
        "meta_ra_of_asc_node": 102.2925,
        "meta_arg_of_pericenter": 325.802,
        "meta_mean_anomaly": 63.7413,
        "meta_ephemeris_type": 0,
        "meta_classification_type": "U",
        "meta_norad_cat_id": 29895,
        "meta_element_set_no": 999,
        "meta_rev_at_epoch": 95616,
        "meta_bstar": 0.0014487,
        "meta_mean_motion_dot": 3.685e-05,
        "meta_mean_motion_ddot": 0,
        "tle_line1": "1 29895U 99025GR  25353.26887735  .00003685  00000+0  14487-2 0  9999",
        "tle_line2": "2 29895  99.8852 102.2925 0299532 325.8020  63.7413 14.08294223956163"
      },
      "geometry": {
        "type": "Point",
        "coordinates": [
          93.08261598659776,
          46.36298053984328
        ]
      }
    },
    {
      "type": "Feature",
      "properties": {
        "norad_id": 29896,
        "name": "FENGYUN 1C DEB",
        "group": "fengyun-1c-debris",
        "lat": -5.493732206700377,
        "lon": -113.09148061636071,
        "alt_km": 1007.6307131503554,
        "timestamp": "2025-12-20T11:30:28.649337+00:00",
        "meta_object_name": "FENGYUN 1C DEB",
        "meta_object_id": "1999-025GS",
        "meta_epoch": "2025-12-19T06:14:46.808736",
        "meta_mean_motion": 13.65375237,
        "meta_eccentricity": 0.0239964,
        "meta_inclination": 99.4225,
        "meta_ra_of_asc_node": 244.8083,
        "meta_arg_of_pericenter": 85.1485,
        "meta_mean_anomaly": 42.3134,
        "meta_ephemeris_type": 0,
        "meta_classification_type": "U",
        "meta_norad_cat_id": 29896,
        "meta_element_set_no": 999,
        "meta_rev_at_epoch": 94131,
        "meta_bstar": 0.00057129,
        "meta_mean_motion_dot": 5.25e-06,
        "meta_mean_motion_ddot": 0,
        "tle_line1": "1 29896U 99025GS  25353.26026399  .00000525  00000+0  57129-3 0  9992",
        "tle_line2": "2 29896  99.4225 244.8083 0239964  85.1485  42.3134 13.65375237941317"
      },
      "geometry": {
        "type": "Point",
        "coordinates": [
          -113.09148061636071,
          -5.493732206700377
        ]
      }
    },
    {
      "type": "Feature",
      "properties": {
        "norad_id": 29897,
        "name": "FENGYUN 1C DEB",
        "group": "fengyun-1c-debris",
        "lat": 45.01316593882918,
        "lon": -150.9241955570617,
        "alt_km": 970.8160470746252,
        "timestamp": "2025-12-20T11:30:28.649347+00:00",
        "meta_object_name": "FENGYUN 1C DEB",
        "meta_object_id": "1999-025GT",
        "meta_epoch": "2025-12-17T14:25:33.441600",
        "meta_mean_motion": 13.57200283,
        "meta_eccentricity": 0.02966784,
        "meta_inclination": 98.6298,
        "meta_ra_of_asc_node": 215.2843,
        "meta_arg_of_pericenter": 126.0243,
        "meta_mean_anomaly": 266.6756,
        "meta_ephemeris_type": 0,
        "meta_classification_type": "U",
        "meta_norad_cat_id": 29897,
        "meta_element_set_no": 999,
        "meta_rev_at_epoch": 93006,
        "meta_bstar": 0.0017231343,
        "meta_mean_motion_dot": 1.601e-05,
        "meta_mean_motion_ddot": 0,
        "tle_line1": "1 29897U 99025GT  25351.60108150  .00001601  00000+0  17231-2 0  9990",
        "tle_line2": "2 29897  98.6298 215.2843 0296678 126.0243 266.6756 13.57200283930067"
      },
      "geometry": {
        "type": "Point",
        "coordinates": [
          -150.9241955570617,
          45.01316593882918
        ]
      }
    },
    {
      "type": "Feature",
      "properties": {
        "norad_id": 29898,
        "name": "FENGYUN 1C DEB",
        "group": "fengyun-1c-debris",
        "lat": 80.50128658853409,
        "lon": -134.47984108739732,
        "alt_km": 889.8369697914595,
        "timestamp": "2025-12-20T11:30:28.649357+00:00",
        "meta_object_name": "FENGYUN 1C DEB",
        "meta_object_id": "1999-025GU",
        "meta_epoch": "2025-12-19T23:03:21.218400",
        "meta_mean_motion": 13.70346291,
        "meta_eccentricity": 0.0427077,
        "meta_inclination": 98.2224,
        "meta_ra_of_asc_node": 345.2888,
        "meta_arg_of_pericenter": 169.7795,
        "meta_mean_anomaly": 251.4789,
        "meta_ephemeris_type": 0,
        "meta_classification_type": "U",
        "meta_norad_cat_id": 29898,
        "meta_element_set_no": 999,
        "meta_rev_at_epoch": 93260,
        "meta_bstar": 0.0011852,
        "meta_mean_motion_dot": 1.965e-05,
        "meta_mean_motion_ddot": 0,
        "tle_line1": "1 29898U 99025GU  25353.96066225  .00001965  00000+0  11852-2 0  9994",
        "tle_line2": "2 29898  98.2224 345.2888 0427077 169.7795 251.4789 13.70346291932606"
      },
      "geometry": {
        "type": "Point",
        "coordinates": [
          -134.47984108739732,
          80.50128658853409
        ]
      }
    },
    {
      "type": "Feature",
      "properties": {
        "norad_id": 29899,
        "name": "FENGYUN 1C DEB",
        "group": "fengyun-1c-debris",
        "lat": -52.1691096205352,
        "lon": 160.17923423664075,
        "alt_km": 1218.9079680500345,
        "timestamp": "2025-12-20T11:30:28.649367+00:00",
        "meta_object_name": "FENGYUN 1C DEB",
        "meta_object_id": "1999-025GV",
        "meta_epoch": "2025-12-19T16:01:21.320832",
        "meta_mean_motion": 13.37494433,
        "meta_eccentricity": 0.0353484,
        "meta_inclination": 98.6619,
        "meta_ra_of_asc_node": 148.1661,
        "meta_arg_of_pericenter": 61.6,
        "meta_mean_anomaly": 302.0286,
        "meta_ephemeris_type": 0,
        "meta_classification_type": "U",
        "meta_norad_cat_id": 29899,
        "meta_element_set_no": 999,
        "meta_rev_at_epoch": 92177,
        "meta_bstar": 0.00015479,
        "meta_mean_motion_dot": 8.4e-07,
        "meta_mean_motion_ddot": 0,
        "tle_line1": "1 29899U 99025GV  25353.66760788  .00000084  00000+0  15479-3 0  9998",
        "tle_line2": "2 29899  98.6619 148.1661 0353484  61.6000 302.0286 13.37494433921773"
      },
      "geometry": {
        "type": "Point",
        "coordinates": [
          160.17923423664075,
          -52.1691096205352
        ]
      }
    },
    {
      "type": "Feature",
      "properties": {
        "norad_id": 29901,
        "name": "FENGYUN 1C DEB",
        "group": "fengyun-1c-debris",
        "lat": 25.958544645300485,
        "lon": 159.8941081925178,
        "alt_km": 1269.3457652212219,
        "timestamp": "2025-12-20T11:30:28.649378+00:00",
        "meta_object_name": "FENGYUN 1C DEB",
        "meta_object_id": "1999-025GX",
        "meta_epoch": "2025-12-20T01:10:31.352736",
        "meta_mean_motion": 13.33257846,
        "meta_eccentricity": 0.037918,
        "meta_inclination": 98.7447,
        "meta_ra_of_asc_node": 163.823,
        "meta_arg_of_pericenter": 267.0763,
        "meta_mean_anomaly": 210.1776,
        "meta_ephemeris_type": 0,
        "meta_classification_type": "U",
        "meta_norad_cat_id": 29901,
        "meta_element_set_no": 999,
        "meta_rev_at_epoch": 92016,
        "meta_bstar": 0.00033616,
        "meta_mean_motion_dot": 2.09e-06,
        "meta_mean_motion_ddot": 0,
        "tle_line1": "1 29901U 99025GX  25354.04897399  .00000209  00000+0  33616-3 0  9996",
        "tle_line2": "2 29901  98.7447 163.8230 0379180 267.0763 210.1776 13.33257846920168"
      },
      "geometry": {
        "type": "Point",
        "coordinates": [
          159.8941081925178,
          25.958544645300485
        ]
      }
    }
  ]
}